[{"OBJECT_NAME":"BEIDOU-3 IGSO-1 (C38)","OBJECT_ID":"2019-023A","EPOCH":"2022-08-19T06:47:24.109152","MEAN_MOTION":1.0029048,"ECCENTRICITY":0.0022853,"INCLINATION":56.6496,"RA_OF_ASC_NODE":52.2953,"ARG_OF_PERICENTER":188.3424,"MEAN_ANOMALY":307.2966,"EPHEMERIS_TYPE":0,"CLASSIFICATION_TYPE":"U","NORAD_CAT_ID":44204,"ELEMENT_SET_NO":999,"REV_AT_EPOCH":1234,"BSTAR":0,"MEAN_MOTION_DOT":-2.05e-6,"MEAN_MOTION_DDOT":0},{"OBJECT_NAME":"BEIDOU-2 G8","OBJECT_ID":"2019-027A","EPOCH":"2022-08-19T14:32:08.945376","MEAN_MOTION":1.00274646,"ECCENTRICITY":0.0005735,"INCLINATION":1.0099,"RA_OF_ASC_NODE":78.5286,"ARG_OF_PERICENTER":112.9338,"MEAN_ANOMALY":138.9979,"EPHEMERIS_TYPE":0,"CLASSIFICATION_TYPE":"U","NORAD_CAT_ID":44231,"ELEMENT_SET_NO":999,"REV_AT_EPOCH":1205,"BSTAR":0,"MEAN_MOTION_DOT":-2.53e-6,"MEAN_MOTION_DDOT":0},{"OBJECT_NAME":"COSMOS 2534 (758)","OBJECT_ID":"2019-030A","EPOCH":"2022-08-19T01:50:42.660096","MEAN_MOTION":2.13101968,"ECCENTRICITY":0.0014146,"INCLINATION":64.4299,"RA_OF_ASC_NODE":239.908,"ARG_OF_PERICENTER":281.1768,"MEAN_ANOMALY":73.8522,"EPHEMERIS_TYPE":0,"CLASSIFICATION_TYPE":"U","NORAD_CAT_ID":44299,"ELEMENT_SET_NO":999,"REV_AT_EPOCH":2513,"BSTAR":0,"MEAN_MOTION_DOT":7.8e-7,"MEAN_MOTION_DDOT":0},{"OBJECT_NAME":"BEIDOU-3 IGSO-2 (C39)","OBJECT_ID":"2019-035A","EPOCH":"2022-08-19T05:43:36.291936","MEAN_MOTION":1.00285235,"ECCENTRICITY":0.0026045,"INCLINATION":55.1226,"RA_OF_ASC_NODE":171.1639,"ARG_OF_PERICENTER":193.4857,"MEAN_ANOMALY":167.831,"EPHEMERIS_TYPE":0,"CLASSIFICATION_TYPE":"U","NORAD_CAT_ID":44337,"ELEMENT_SET_NO":999,"REV_AT_EPOCH":1168,"BSTAR":0,"MEAN_MOTION_DOT":-1.36e-6,"MEAN_MOTION_DDOT":0},{"OBJECT_NAME":"GPS BIII-2  (PRN 18)","OBJECT_ID":"2019-056A","EPOCH":"2022-08-19T09:58:17.878080","MEAN_MOTION":2.00558101,"ECCENTRICITY":0.0027096,"INCLINATION":55.7085,"RA_OF_ASC_NODE":26.5455,"ARG_OF_PERICENTER":178.821,"MEAN_ANOMALY":26.7559,"EPHEMERIS_TYPE":0,"CLASSIFICATION_TYPE":"U","NORAD_CAT_ID":44506,"ELEMENT_SET_NO":999,"REV_AT_EPOCH":2203,"BSTAR":0,"MEAN_MOTION_DOT":-8.6e-7,"MEAN_MOTION_DDOT":0},{"OBJECT_NAME":"BEIDOU-3 M23 (C45)","OBJECT_ID":"2019-061A","EPOCH":"2022-08-19T00:27:40.486176","MEAN_MOTION":1.86231527,"ECCENTRICITY":0.0008679,"INCLINATION":54.5705,"RA_OF_ASC_NODE":229.9859,"ARG_OF_PERICENTER":325.5804,"MEAN_ANOMALY":34.3729,"EPHEMERIS_TYPE":0,"CLASSIFICATION_TYPE":"U","NORAD_CAT_ID":44542,"ELEMENT_SET_NO":999,"REV_AT_EPOCH":1975,"BSTAR":0,"MEAN_MOTION_DOT":7.2e-7,"MEAN_MOTION_DDOT":0},{"OBJECT_NAME":"BEIDOU-3 M24 (C46)","OBJECT_ID":"2019-061B","EPOCH":"2022-08-19T10:00:58.624416","MEAN_MOTION":1.86231782,"ECCENTRICITY":0.0006361,"INCLINATION":54.5674,"RA_OF_ASC_NODE":229.942,"ARG_OF_PERICENTER":307.3992,"MEAN_ANOMALY":230.8708,"EPHEMERIS_TYPE":0,"CLASSIFICATION_TYPE":"U","NORAD_CAT_ID":44543,"ELEMENT_SET_NO":999,"REV_AT_EPOCH":1975,"BSTAR":0,"MEAN_MOTION_DOT":7.4e-7,"MEAN_MOTION_DDOT":0},{"OBJECT_NAME":"BEIDOU-3 IGSO-3","OBJECT_ID":"2019-073A","EPOCH":"2022-08-19T08:19:58.785024","MEAN_MOTION":1.00289461,"ECCENTRICITY":0.0027384,"INCLINATION":57.1624,"RA_OF_ASC_NODE":295.7348,"ARG_OF_PERICENTER":179.9066,"MEAN_ANOMALY":95.9704,"EPHEMERIS_TYPE":0,"CLASSIFICATION_TYPE":"U","NORAD_CAT_ID":44709,"ELEMENT_SET_NO":999,"REV_AT_EPOCH":1042,"BSTAR":0.0001,"MEAN_MOTION_DOT":-1.8e-6,"MEAN_MOTION_DDOT":0},{"OBJECT_NAME":"BEIDOU-3 M21","OBJECT_ID":"2019-078A","EPOCH":"2022-08-19T10:32:37.629888","MEAN_MOTION":1.86232322,"ECCENTRICITY":0.000562,"INCLINATION":54.9499,"RA_OF_ASC_NODE":348.4503,"ARG_OF_PERICENTER":22.9991,"MEAN_ANOMALY":3.1066,"EPHEMERIS_TYPE":0,"CLASSIFICATION_TYPE":"U","NORAD_CAT_ID":44793,"ELEMENT_SET_NO":999,"REV_AT_EPOCH":1862,"BSTAR":0.0001,"MEAN_MOTION_DOT":-1.22e-6,"MEAN_MOTION_DDOT":0},{"OBJECT_NAME":"BEIDOU-3 M22","OBJECT_ID":"2019-078B","EPOCH":"2022-08-19T13:07:22.915200","MEAN_MOTION":1.86232779,"ECCENTRICITY":0.0003556,"INCLINATION":54.924,"RA_OF_ASC_NODE":348.4367,"ARG_OF_PERICENTER":21.4157,"MEAN_ANOMALY":348.5171,"EPHEMERIS_TYPE":0,"CLASSIFICATION_TYPE":"U","NORAD_CAT_ID":44794,"ELEMENT_SET_NO":999,"REV_AT_EPOCH":1862,"BSTAR":0,"MEAN_MOTION_DOT":-1.22e-6,"MEAN_MOTION_DDOT":0},{"OBJECT_NAME":"COSMOS 2544 (759)","OBJECT_ID":"2019-088A","EPOCH":"2022-08-19T08:07:09.823296","MEAN_MOTION":2.13102358,"ECCENTRICITY":0.0012176,"INCLINATION":64.9665,"RA_OF_ASC_NODE":120.5816,"ARG_OF_PERICENTER":259.559,"MEAN_ANOMALY":281.4708,"EPHEMERIS_TYPE":0,"CLASSIFICATION_TYPE":"U","NORAD_CAT_ID":44850,"ELEMENT_SET_NO":999,"REV_AT_EPOCH":2091,"BSTAR":1.6595,"MEAN_MOTION_DOT":-3.8e-7,"MEAN_MOTION_DDOT":0},{"OBJECT_NAME":"BEIDOU-3 M19","OBJECT_ID":"2019-090A","EPOCH":"2022-08-19T11:31:04.872864","MEAN_MOTION":1.86231998,"ECCENTRICITY":0.0016268,"INCLINATION":55.4485,"RA_OF_ASC_NODE":109.4448,"ARG_OF_PERICENTER":273.2996,"MEAN_ANOMALY":246.2195,"EPHEMERIS_TYPE":0,"CLASSIFICATION_TYPE":"U","NORAD_CAT_ID":44864,"ELEMENT_SET_NO":999,"REV_AT_EPOCH":1820,"BSTAR":0,"MEAN_MOTION_DOT":-5.8e-7,"MEAN_MOTION_DDOT":0},{"OBJECT_NAME":"BEIDOU-3 M20","OBJECT_ID":"2019-090B","EPOCH":"2022-08-19T08:55:28.034400","MEAN_MOTION":1.86231958,"ECCENTRICITY":0.0014666,"INCLINATION":55.4509,"RA_OF_ASC_NODE":109.4805,"ARG_OF_PERICENTER":288.4444,"MEAN_ANOMALY":248.478,"EPHEMERIS_TYPE":0,"CLASSIFICATION_TYPE":"U","NORAD_CAT_ID":44865,"ELEMENT_SET_NO":999,"REV_AT_EPOCH":1817,"BSTAR":0,"MEAN_MOTION_DOT":-5.8e-7,"MEAN_MOTION_DDOT":0},{"OBJECT_NAME":"BEIDOU-3 G2","OBJECT_ID":"2020-017A","EPOCH":"2022-08-19T12:25:45.455808","MEAN_MOTION":1.00272131,"ECCENTRICITY":0.0004694,"INCLINATION":2.0303,"RA_OF_ASC_NODE":355.2093,"ARG_OF_PERICENTER":140.3736,"MEAN_ANOMALY":98.7267,"EPHEMERIS_TYPE":0,"CLASSIFICATION_TYPE":"U","NORAD_CAT_ID":45344,"ELEMENT_SET_NO":999,"REV_AT_EPOCH":924,"BSTAR":0,"MEAN_MOTION_DOT":-1.45e-6,"MEAN_MOTION_DDOT":0},{"OBJECT_NAME":"COSMOS 2545 (760)","OBJECT_ID":"2020-018A","EPOCH":"2022-08-19T07:23:23.951040","MEAN_MOTION":2.13102762,"ECCENTRICITY":0.0007737,"INCLINATION":64.9156,"RA_OF_ASC_NODE":1.1258,"ARG_OF_PERICENTER":233.6871,"MEAN_ANOMALY":133.4306,"EPHEMERIS_TYPE":0,"CLASSIFICATION_TYPE":"U","NORAD_CAT_ID":45358,"ELEMENT_SET_NO":999,"REV_AT_EPOCH":1887,"BSTAR":0,"MEAN_MOTION_DOT":-8.6e-7,"MEAN_MOTION_DDOT":0},{"OBJECT_NAME":"BEIDOU-3 G3","OBJECT_ID":"2020-040A","EPOCH":"2022-08-19T12:34:32.843136","MEAN_MOTION":1.00268864,"ECCENTRICITY":0.0007398,"INCLINATION":1.3019,"RA_OF_ASC_NODE":305.0706,"ARG_OF_PERICENTER":329.1024,"MEAN_ANOMALY":352.8427,"EPHEMERIS_TYPE":0,"CLASSIFICATION_TYPE":"U","NORAD_CAT_ID":45807,"ELEMENT_SET_NO":999,"REV_AT_EPOCH":805,"BSTAR":0,"MEAN_MOTION_DOT":-3.58e-6,"MEAN_MOTION_DDOT":0},{"OBJECT_NAME":"GPS BIII-3  (PRN 23)","OBJECT_ID":"2020-041A","EPOCH":"2022-08-19T11:08:38.474880","MEAN_MOTION":2.00558127,"ECCENTRICITY":0.002497,"INCLINATION":55.5695,"RA_OF_ASC_NODE":83.8118,"ARG_OF_PERICENTER":176.6089,"MEAN_ANOMALY":0.7688,"EPHEMERIS_TYPE":0,"CLASSIFICATION_TYPE":"U","NORAD_CAT_ID":45854,"ELEMENT_SET_NO":999,"REV_AT_EPOCH":1600,"BSTAR":0,"MEAN_MOTION_DOT":-5.4e-7,"MEAN_MOTION_DDOT":0}]